{
  "type": "FeatureCollection",
  "features": [
    {
      "type": "Feature",
      "properties": {
        "norad_id": 36691,
        "name": "FENGYUN 1C DEB",
        "group": "fengyun-1c-debris",
        "lat": -56.05086705974871,
        "lon": 145.89416458592743,
        "alt_km": 789.503696311388,
        "timestamp": "2025-12-04T10:51:50.394007+00:00",
        "meta_object_name": "FENGYUN 1C DEB",
        "meta_object_id": "1999-025DZM",
        "meta_epoch": "2025-12-03T18:22:18.222816",
        "meta_mean_motion": 14.07043447,
        "meta_eccentricity": 0.01291995,
        "meta_inclination": 98.6369,
        "meta_ra_of_asc_node": 338.2855,
        "meta_arg_of_pericenter": 260.9159,
        "meta_mean_anomaly": 97.7372,
        "meta_ephemeris_type": 0,
        "meta_classification_type": "U",
        "meta_norad_cat_id": 36691,
        "meta_element_set_no": 999,
        "meta_rev_at_epoch": 59483,
        "meta_bstar": 0.0030880274,
        "meta_mean_motion_dot": 5.527e-05,
        "meta_mean_motion_ddot": 0,
        "tle_line1": "1 36691U 99025DZM 25337.76548869  .00005527  00000+0  30880-2 0  9992",
        "tle_line2": "2 36691  98.6369 338.2855 0129199 260.9159  97.7372 14.07043447594833"
      },
      "geometry": {
        "type": "Point",
        "coordinates": [
          145.89416458592743,
          -56.05086705974871
        ]
      }
    },
    {
      "type": "Feature",
      "properties": {
        "norad_id": 36692,
        "name": "FENGYUN 1C DEB",
        "group": "fengyun-1c-debris",
        "lat": -72.67876737690547,
        "lon": -81.70206126756436,
        "alt_km": 952.6274142327266,
        "timestamp": "2025-12-04T10:51:50.394017+00:00",
        "meta_object_name": "FENGYUN 1C DEB",
        "meta_object_id": "1999-025DZN",
        "meta_epoch": "2025-12-02T12:41:50.115264",
        "meta_mean_motion": 13.93442658,
        "meta_eccentricity": 0.01157157,
        "meta_inclination": 99.9951,
        "meta_ra_of_asc_node": 241.7875,
        "meta_arg_of_pericenter": 39.9127,
        "meta_mean_anomaly": 321.0467,
        "meta_ephemeris_type": 0,
        "meta_classification_type": "U",
        "meta_norad_cat_id": 36692,
        "meta_element_set_no": 999,
        "meta_rev_at_epoch": 59663,
        "meta_bstar": 0.0007628804,
        "meta_mean_motion_dot": 1.005e-05,
        "meta_mean_motion_ddot": 0,
        "tle_line1": "1 36692U 99025DZN 25336.52905226  .00001005  00000+0  76288-3 0  9990",
        "tle_line2": "2 36692  99.9951 241.7875 0115715  39.9127 321.0467 13.93442658596632"
      },
      "geometry": {
        "type": "Point",
        "coordinates": [
          -81.70206126756436,
          -72.67876737690547
        ]
      }
    },
    {
      "type": "Feature",
      "properties": {
        "norad_id": 36695,
        "name": "FENGYUN 1C DEB",
        "group": "fengyun-1c-debris",
        "lat": 72.67871874421357,
        "lon": 167.66907489357766,
        "alt_km": 619.2942904300289,
        "timestamp": "2025-12-04T10:51:50.394028+00:00",
        "meta_object_name": "FENGYUN 1C DEB",
        "meta_object_id": "1999-025DZR",
        "meta_epoch": "2025-12-02T05:08:42.495936",
        "meta_mean_motion": 14.43719766,
        "meta_eccentricity": 0.0256767,
        "meta_inclination": 98.2188,
        "meta_ra_of_asc_node": 317.8964,
        "meta_arg_of_pericenter": 162.2314,
        "meta_mean_anomaly": 198.8066,
        "meta_ephemeris_type": 0,
        "meta_classification_type": "U",
        "meta_norad_cat_id": 36695,
        "meta_element_set_no": 999,
        "meta_rev_at_epoch": 89416,
        "meta_bstar": 0.00021067,
        "meta_mean_motion_dot": 1.017e-05,
        "meta_mean_motion_ddot": 0,
        "tle_line1": "1 36695U 99025DZR 25336.21438074  .00001017  00000+0  21067-3 0  9999",
        "tle_line2": "2 36695  98.2188 317.8964 0256767 162.2314 198.8066 14.43719766894161"
      },
      "geometry": {
        "type": "Point",
        "coordinates": [
          167.66907489357766,
          72.67871874421357
        ]
      }
    },
    {
      "type": "Feature",
      "properties": {
        "norad_id": 36696,
        "name": "FENGYUN 1C DEB",
        "group": "fengyun-1c-debris",
        "lat": 46.428727466545396,
        "lon": 176.63018283084824,
        "alt_km": 770.0524860817086,
        "timestamp": "2025-12-04T10:51:50.394038+00:00",
        "meta_object_name": "FENGYUN 1C DEB",
        "meta_object_id": "1999-025DZS",
        "meta_epoch": "2025-12-02T18:11:58.683840",
        "meta_mean_motion": 14.38992658,
        "meta_eccentricity": 0.00232796,
        "meta_inclination": 98.9924,
        "meta_ra_of_asc_node": 345.2734,
        "meta_arg_of_pericenter": 359.309,
        "meta_mean_anomaly": 0.806,
        "meta_ephemeris_type": 0,
        "meta_classification_type": "U",
        "meta_norad_cat_id": 36696,
        "meta_element_set_no": 999,
        "meta_rev_at_epoch": 64252,
        "meta_bstar": 0.0025774102,
        "meta_mean_motion_dot": 7.939e-05,
        "meta_mean_motion_ddot": 0,
        "tle_line1": "1 36696U 99025DZS 25336.75831810  .00007939  00000+0  25774-2 0  9991",
        "tle_line2": "2 36696  98.9924 345.2734 0023279 359.3090   0.8060 14.38992658642521"
      },
      "geometry": {
        "type": "Point",
        "coordinates": [
          176.63018283084824,
          46.428727466545396
        ]
      }
    },
    {
      "type": "Feature",
      "properties": {
        "norad_id": 36699,
        "name": "FENGYUN 1C DEB",
        "group": "fengyun-1c-debris",
        "lat": -69.23652144537503,
        "lon": 129.765987213077,
        "alt_km": 825.6264729548257,
        "timestamp": "2025-12-04T10:51:50.394049+00:00",
        "meta_object_name": "FENGYUN 1C DEB",
        "meta_object_id": "1999-025DZV",
        "meta_epoch": "2025-12-02T05:25:44.765184",
        "meta_mean_motion": 14.24274466,
        "meta_eccentricity": 0.0094163,
        "meta_inclination": 98.5587,
        "meta_ra_of_asc_node": 331.0009,
        "meta_arg_of_pericenter": 160.5985,
        "meta_mean_anomaly": 199.8818,
        "meta_ephemeris_type": 0,
        "meta_classification_type": "U",
        "meta_norad_cat_id": 36699,
        "meta_element_set_no": 999,
        "meta_rev_at_epoch": 73177,
        "meta_bstar": 0.00029938,
        "meta_mean_motion_dot": 6.81e-06,
        "meta_mean_motion_ddot": 0,
        "tle_line1": "1 36699U 99025DZV 25336.22621256  .00000681  00000+0  29938-3 0  9991",
        "tle_line2": "2 36699  98.5587 331.0009 0094163 160.5985 199.8818 14.24274466731779"
      },
      "geometry": {
        "type": "Point",
        "coordinates": [
          129.765987213077,
          -69.23652144537503
        ]
      }
    },
    {
      "type": "Feature",
      "properties": {
        "norad_id": 36701,
        "name": "FENGYUN 1C DEB",
        "group": "fengyun-1c-debris",
        "lat": -15.460934597353852,
        "lon": -66.30789000355533,
        "alt_km": 935.2964239896792,
        "timestamp": "2025-12-04T10:51:50.394059+00:00",
        "meta_object_name": "FENGYUN 1C DEB",
        "meta_object_id": "1999-025DZX",
        "meta_epoch": "2025-11-30T15:53:09.500928",
        "meta_mean_motion": 13.71224206,
        "meta_eccentricity": 0.02612081,
        "meta_inclination": 102.7441,
        "meta_ra_of_asc_node": 285.087,
        "meta_arg_of_pericenter": 280.9421,
        "meta_mean_anomaly": 76.243,
        "meta_ephemeris_type": 0,
        "meta_classification_type": "U",
        "meta_norad_cat_id": 36701,
        "meta_element_set_no": 999,
        "meta_rev_at_epoch": 60973,
        "meta_bstar": 0.0027853288,
        "meta_mean_motion_dot": 3.111e-05,
        "meta_mean_motion_ddot": 0,
        "tle_line1": "1 36701U 99025DZX 25334.66191552  .00003111  00000+0  27853-2 0  9996",
        "tle_line2": "2 36701 102.7441 285.0870 0261208 280.9421  76.2430 13.71224206609738"
      },
      "geometry": {
        "type": "Point",
        "coordinates": [
          -66.30789000355533,
          -15.460934597353852
        ]
      }
    },
    {
      "type": "Feature",
      "properties": {
        "norad_id": 36707,
        "name": "FENGYUN 1C DEB",
        "group": "fengyun-1c-debris",
        "lat": -14.958476355878153,
        "lon": 27.05193752536382,
        "alt_km": 873.1132811389607,
        "timestamp": "2025-12-04T10:51:50.394069+00:00",
        "meta_object_name": "FENGYUN 1C DEB",
        "meta_object_id": "1999-025EAD",
        "meta_epoch": "2025-12-03T23:04:31.372608",
        "meta_mean_motion": 14.17266371,
        "meta_eccentricity": 0.0049996,
        "meta_inclination": 98.7532,
        "meta_ra_of_asc_node": 24.2092,
        "meta_arg_of_pericenter": 146.3884,
        "meta_mean_anomaly": 214.0479,
        "meta_ephemeris_type": 0,
        "meta_classification_type": "U",
        "meta_norad_cat_id": 36707,
        "meta_element_set_no": 999,
        "meta_rev_at_epoch": 63955,
        "meta_bstar": 0.0013557,
        "meta_mean_motion_dot": 2.729e-05,
        "meta_mean_motion_ddot": 0,
        "tle_line1": "1 36707U 99025EAD 25337.96147422  .00002729  00000+0  13557-2 0  9995",
        "tle_line2": "2 36707  98.7532  24.2092 0049996 146.3884 214.0479 14.17266371639552"
      },
      "geometry": {
        "type": "Point",
        "coordinates": [
          27.05193752536382,
          -14.958476355878153
        ]
      }
    }
  ]
}